{"type":"Feature","properties":{"MUN":"BRIELLE BORO","COUNTY":"MONMOUTH","MUN_LABEL":"Brielle Borough","MUN_TYPE":"Borough","NAME":"Brielle Borough","GNIS_NAME":"Borough of Brielle"},"geometry":{"type":"Polygon","coordinates":[[[-74.0521476,40.1160542],[-74.0521196,40.1160518],[-74.0520842,40.1160551],[-74.0520533,40.1160629],[-74.0520326,40.1160684],[-74.0520076,40.1160683],[-74.0519899,40.1160637],[-74.0519767,40.1160592],[-74.0519605,40.1160489],[-74.05194,40.1160375],[-74.0519194,40.1160261],[-74.0518967,40.1160159],[-74.0518511,40.116001],[-74.0518114,40.1159907],[-74.0517703,40.1159792],[-74.0517482,40.1159689],[-74.0517262,40.115953],[-74.0517101,40.1159405],[-74.0516896,40.115928],[-74.0516646,40.11592],[-74.0516146,40.1159073],[-74.0515617,40.1158856],[-74.051525,40.1158652],[-74.051481,40.1158412],[-74.0514369,40.1158196],[-74.0514061,40.1158081],[-74.051384,40.1158069],[-74.0513648,40.115808],[-74.0513221,40.1158135],[-74.0512645,40.1158246],[-74.0511916,40.1158345],[-74.0511267,40.1158433],[-74.0510839,40.1158521],[-74.051047,40.1158622],[-74.0510101,40.1158745],[-74.050988,40.1158868],[-74.0509657,40.115906],[-74.0509538,40.1159252],[-74.0509375,40.1159443],[-74.0509213,40.1159522],[-74.0508947,40.11596],[-74.0508652,40.115961],[-74.0508431,40.1159575],[-74.0508241,40.1159495],[-74.0508049,40.1159415],[-74.0507873,40.1159358],[-74.0507652,40.1159369],[-74.0507578,40.1159391],[-74.0507445,40.1159537],[-74.0507296,40.1159695],[-74.0507178,40.1159819],[-74.0506986,40.1159875],[-74.0506765,40.1159874],[-74.050653,40.1159817],[-74.050631,40.115968],[-74.050606,40.1159509],[-74.0505752,40.1159338],[-74.0505444,40.1159213],[-74.0504973,40.1159121],[-74.0504399,40.1159085],[-74.050353,40.115907],[-74.0502796,40.1159108],[-74.0502547,40.1159095],[-74.050196,40.1159067],[-74.05011,40.1158912],[-74.0499896,40.1158586],[-74.0498889,40.1158356],[-74.0497709,40.1158143],[-74.0496697,40.1158036],[-74.0495011,40.115782],[-74.0490613,40.1156654],[-74.0484277,40.1153771],[-74.0478603,40.1149212],[-74.0472331,40.1142905],[-74.0468239,40.113834],[-74.0466356,40.1133754],[-74.0465413,40.1128563],[-74.0465432,40.112582],[-74.0465828,40.112268],[-74.0465843,40.1120477],[-74.0465493,40.1118605],[-74.0464653,40.1117298],[-74.0463349,40.111605],[-74.0461429,40.1114561],[-74.0460198,40.1113964],[-74.0458505,40.1113188],[-74.0456964,40.1112767],[-74.0455344,40.1112583],[-74.045411,40.1112342],[-74.0453032,40.1111923],[-74.0451646,40.1111384],[-74.045057,40.1110729],[-74.0449264,40.1109835],[-74.0448191,40.1108706],[-74.0447426,40.1107578],[-74.0446817,40.1106391],[-74.0446545,40.11056],[-74.0446054,40.1104178],[-74.0445633,40.1102946],[-74.0445388,40.1099887],[-74.0444885,40.1095604],[-74.0444368,40.1093359],[-74.0443672,40.1091965],[-74.0443451,40.1091521],[-74.0443037,40.1091094],[-74.0441713,40.1089725],[-74.043989,40.1088371],[-74.043868,40.1086844],[-74.0438361,40.1086349],[-74.0437924,40.108567],[-74.0437328,40.108356],[-74.0436757,40.1081997],[-74.0436279,40.1080687],[-74.0435229,40.1077605],[-74.0435081,40.107717],[-74.043346,40.1072934],[-74.0432077,40.1069529],[-74.043157,40.1068279],[-74.0430807,40.106629],[-74.0430263,40.1064872],[-74.0429685,40.1062943],[-74.0428807,40.1061579],[-74.0427405,40.1059399],[-74.0434341,40.1061601],[-74.044252,40.1063477],[-74.0452393,40.1065359],[-74.0459589,40.1066363],[-74.0470318,40.1067056],[-74.0477094,40.1067516],[-74.0480792,40.1067325],[-74.0485066,40.1066358],[-74.0485148,40.1066325],[-74.049177,40.1063654],[-74.0499187,40.1060515],[-74.0504465,40.1058133],[-74.0509604,40.1055422],[-74.0513603,40.1052926],[-74.0520037,40.1047817],[-74.0525469,40.1043688],[-74.0529538,40.104141],[-74.0533891,40.1039188],[-74.0538529,40.1036803],[-74.0547668,40.1031322],[-74.0551956,40.1028007],[-74.0555385,40.1024713],[-74.055898,40.1019983],[-74.0562103,40.1014704],[-74.0564513,40.1009422],[-74.0566702,40.1001584],[-74.0568888,40.0994294],[-74.056997,40.0991541],[-74.0572753,40.0984456],[-74.0576598,40.097772],[-74.0579242,40.0974079],[-74.058473,40.0969357],[-74.0589986,40.0964998],[-74.0593489,40.0962474],[-74.0599056,40.0958464],[-74.0599734,40.0958074],[-74.0607879,40.0953389],[-74.0624088,40.0945057],[-74.0625015,40.0944549],[-74.0627236,40.0943518],[-74.0636359,40.0939324],[-74.0650031,40.0934963],[-74.0666343,40.0929509],[-74.0678393,40.0926637],[-74.0683356,40.0925454],[-74.0683844,40.0925162],[-74.0687696,40.0921683],[-74.0693237,40.0916189],[-74.070167,40.0907396],[-74.0711305,40.0897688],[-74.0714455,40.0895541],[-74.0716591,40.0894398],[-74.0718323,40.089384],[-74.0720665,40.0893678],[-74.0723804,40.0893861],[-74.0726644,40.0894435],[-74.0728767,40.0895516],[-74.073034,40.0896839],[-74.0733006,40.0899508],[-74.0735329,40.090274],[-74.0739354,40.0909925],[-74.0743392,40.0914903],[-74.0748396,40.0918599],[-74.0752122,40.092047],[-74.0752452,40.0920636],[-74.0759382,40.09225],[-74.0780642,40.0929563],[-74.079378,40.0934023],[-74.0809065,40.0939778],[-74.08241,40.0947186],[-74.0837935,40.0955324],[-74.0844842,40.0961049],[-74.0851979,40.0968428],[-74.0858874,40.0976174],[-74.0862857,40.0981087],[-74.0846853,40.098604],[-74.0836783,40.0990756],[-74.0835338,40.0991432],[-74.0824544,40.0997438],[-74.0822572,40.0998536],[-74.0816158,40.1002039],[-74.0815652,40.1002316],[-74.0811922,40.100455],[-74.0795441,40.1012689],[-74.0794757,40.1013468],[-74.0793403,40.1015066],[-74.0792381,40.1016302],[-74.0789042,40.1020339],[-74.0784962,40.1025186],[-74.0781149,40.1029783],[-74.0760382,40.1052196],[-74.0754771,40.1058592],[-74.0753368,40.106014],[-74.074871,40.106509],[-74.074315,40.1070521],[-74.0739938,40.1073994],[-74.0739353,40.1074517],[-74.0734832,40.1078563],[-74.0731671,40.1081243],[-74.0729141,40.1083441],[-74.0727106,40.1085504],[-74.0725837,40.1087259],[-74.0724792,40.1089014],[-74.0723834,40.1091391],[-74.07226,40.1094733],[-74.0721775,40.1097318],[-74.0720309,40.1101728],[-74.0718477,40.1107379],[-74.0716644,40.1113065],[-74.0715638,40.111589],[-74.0714491,40.1119577],[-74.0712204,40.112602],[-74.0709868,40.1133084],[-74.0709639,40.1133842],[-74.0709275,40.113453],[-74.0708733,40.1135012],[-74.0707426,40.1135559],[-74.070552,40.11363],[-74.0700309,40.1138327],[-74.0694,40.1140807],[-74.0693057,40.1141178],[-74.0689183,40.1142701],[-74.0679633,40.1146426],[-74.0665443,40.1152066],[-74.065458,40.1156369],[-74.0654522,40.1156775],[-74.0654421,40.1157488],[-74.0653926,40.1160977],[-74.0653669,40.1162786],[-74.0640309,40.118022],[-74.0619892,40.120686],[-74.0619271,40.1206767],[-74.0618218,40.1206631],[-74.0617409,40.1206572],[-74.061633,40.120653],[-74.0614295,40.1206428],[-74.0613499,40.1206312],[-74.061296,40.1206216],[-74.0612347,40.1206139],[-74.0611562,40.1206098],[-74.0610753,40.1206057],[-74.0610043,40.120596],[-74.0609161,40.1205863],[-74.0608352,40.1205766],[-74.0607666,40.1205631],[-74.0607176,40.1205535],[-74.0606514,40.1205495],[-74.0606085,40.1205437],[-74.0605424,40.1205321],[-74.060464,40.1205149],[-74.060393,40.1205015],[-74.0603366,40.1204918],[-74.0602816,40.1204766],[-74.0600914,40.1204344],[-74.0598204,40.1203695],[-74.0595135,40.1202833],[-74.0593117,40.1202124],[-74.0590189,40.1200943],[-74.0589057,40.1200471],[-74.0587786,40.1199998],[-74.0586957,40.1199634],[-74.0586129,40.1199205],[-74.0585858,40.1198921],[-74.0585102,40.1198316],[-74.0584516,40.1197805],[-74.0584102,40.1197408],[-74.0583712,40.1196955],[-74.0582982,40.1196161],[-74.058208,40.1195273],[-74.0581277,40.1194347],[-74.0580594,40.1193704],[-74.0580204,40.119342],[-74.0579947,40.1193344],[-74.0579336,40.1193078],[-74.0578503,40.119283],[-74.0577107,40.1192599],[-74.0575956,40.119235],[-74.0575148,40.1192121],[-74.0574438,40.1191855],[-74.0573845,40.1191608],[-74.0573235,40.1191238],[-74.0571372,40.1190177],[-74.0570835,40.1189836],[-74.0570419,40.1189589],[-74.0569955,40.1189334],[-74.056965,40.1189144],[-74.0569271,40.1188888],[-74.0568838,40.1188595],[-74.0568385,40.118833],[-74.0567909,40.1188093],[-74.0567445,40.1187846],[-74.0566882,40.1187552],[-74.0566638,40.1187363],[-74.0566431,40.1187202],[-74.0566126,40.1186994],[-74.0565894,40.1186823],[-74.0565687,40.1186644],[-74.0565517,40.1186361],[-74.0565384,40.1186106],[-74.0565262,40.1186002],[-74.0565115,40.1185926],[-74.0564858,40.118585],[-74.0564558,40.1185755],[-74.056413,40.1185611],[-74.056369,40.1185393],[-74.0563275,40.1185156],[-74.0562835,40.1184835],[-74.056209,40.1184436],[-74.0561454,40.1184114],[-74.0561149,40.1183943],[-74.0560391,40.118363],[-74.0559951,40.1183393],[-74.0559597,40.1183184],[-74.0559316,40.1182929],[-74.0559121,40.118274],[-74.0558944,40.1182524],[-74.0558645,40.1182077],[-74.0558323,40.118163],[-74.0558046,40.1181201],[-74.0557608,40.1180717],[-74.0557124,40.1180216],[-74.0556812,40.1179912],[-74.0556189,40.1179303],[-74.0555659,40.1178677],[-74.0555175,40.1178086],[-74.0554805,40.1177728],[-74.0554505,40.1177513],[-74.0554041,40.1177297],[-74.0553369,40.1177081],[-74.0552674,40.1176739],[-74.0552165,40.1176487],[-74.0551471,40.1176092],[-74.0551055,40.1175752],[-74.0550546,40.1175411],[-74.0549968,40.1175034],[-74.0549667,40.1174819],[-74.0549135,40.1174532],[-74.0548001,40.1173814],[-74.0547099,40.1173187],[-74.0545596,40.1172182],[-74.0544396,40.1171444],[-74.0544295,40.1171348],[-74.0543994,40.1171186],[-74.0543566,40.1170953],[-74.0543173,40.1170734],[-74.0542837,40.1170513],[-74.0542518,40.1170313],[-74.0542139,40.1170072],[-74.0541828,40.1169924],[-74.0541499,40.1169783],[-74.0541089,40.1169649],[-74.0540648,40.1169494],[-74.0540285,40.1169386],[-74.0540017,40.1169312],[-74.0539697,40.1169244],[-74.053942,40.116919],[-74.0539135,40.1169136],[-74.0538936,40.1169102],[-74.0538754,40.1169075],[-74.0538512,40.116902],[-74.0538339,40.1168967],[-74.0538015,40.1168839],[-74.0537557,40.1168664],[-74.0537108,40.116849],[-74.0536702,40.1168329],[-74.0536357,40.1168181],[-74.0536097,40.1168094],[-74.0535743,40.1167973],[-74.0535445,40.1167885],[-74.0535065,40.1167731],[-74.0534849,40.1167637],[-74.0534521,40.1167456],[-74.0532683,40.1166378],[-74.0532541,40.1166331],[-74.0532307,40.1166317],[-74.0532082,40.1166283],[-74.0531926,40.1166229],[-74.0531788,40.1166135],[-74.053165,40.1166035],[-74.0531513,40.1165941],[-74.0531271,40.1165781],[-74.0531098,40.1165701],[-74.0530873,40.1165646],[-74.0530666,40.1165612],[-74.0530467,40.1165572],[-74.0530328,40.1165525],[-74.0530156,40.1165431],[-74.0530035,40.1165337],[-74.0529906,40.116523],[-74.0529768,40.1165124],[-74.0529635,40.1165023],[-74.0529177,40.1164829],[-74.0528875,40.1164675],[-74.0528391,40.1164473],[-74.0528011,40.1164312],[-74.0527618,40.1164151],[-74.052723,40.1163963],[-74.052685,40.1163769],[-74.0526591,40.1163628],[-74.0526453,40.1163521],[-74.0526359,40.1163408],[-74.0526256,40.1163215],[-74.0526144,40.1163062],[-74.0525964,40.1162908],[-74.0525782,40.1162801],[-74.0525489,40.1162686],[-74.0525117,40.1162579],[-74.0524832,40.1162458],[-74.0524564,40.1162317],[-74.0524293,40.116217],[-74.0523912,40.1161953],[-74.0523677,40.1161839],[-74.0523397,40.1161782],[-74.0523162,40.1161758],[-74.0522926,40.1161735],[-74.0522661,40.1161689],[-74.0522412,40.1161586],[-74.0522265,40.1161472],[-74.0522148,40.1161313],[-74.0522017,40.1161041],[-74.0521901,40.1160815],[-74.0521814,40.1160656],[-74.0521711,40.1160599],[-74.0521476,40.1160542]]]}}
